[{"OBJECT_NAME":"DUPLEX","OBJECT_ID":"1998-067XS","EPOCH":"2026-04-09T20:07:12.698688","MEAN_MOTION":15.58333225,"ECCENTRICITY":0.00035983,"INCLINATION":51.6283,"RA_OF_ASC_NODE":273.408,"ARG_OF_PERICENTER":265.6183,"MEAN_ANOMALY":94.4398,"EPHEMERIS_TYPE":0,"CLASSIFICATION_TYPE":"U","NORAD_CAT_ID":66906,"ELEMENT_SET_NO":999,"REV_AT_EPOCH":1998,"BSTAR":0.00036408043,"MEAN_MOTION_DOT":0.00027767,"MEAN_MOTION_DDOT":0},{"OBJECT_NAME":"ISS OBJECT XT","OBJECT_ID":"1998-067XT","EPOCH":"2026-04-08T20:18:26.922816","MEAN_MOTION":15.82828935,"ECCENTRICITY":0.00083693,"INCLINATION":51.6214,"RA_OF_ASC_NODE":270.4728,"ARG_OF_PERICENTER":277.8319,"MEAN_ANOMALY":82.1733,"EPHEMERIS_TYPE":0,"CLASSIFICATION_TYPE":"U","NORAD_CAT_ID":66907,"ELEMENT_SET_NO":999,"REV_AT_EPOCH":1993,"BSTAR":0.0013445904,"MEAN_MOTION_DOT":0.00301366,"MEAN_MOTION_DDOT":0},{"OBJECT_NAME":"ISS OBJECT XU","OBJECT_ID":"1998-067XU","EPOCH":"2026-04-09T20:23:33.233280","MEAN_MOTION":15.83860648,"ECCENTRICITY":0.00086911,"INCLINATION":51.6206,"RA_OF_ASC_NODE":265.1662,"ARG_OF_PERICENTER":282.1116,"MEAN_ANOMALY":77.8914,"EPHEMERIS_TYPE":0,"CLASSIFICATION_TYPE":"U","NORAD_CAT_ID":66908,"ELEMENT_SET_NO":999,"REV_AT_EPOCH":2009,"BSTAR":0.0012921939,"MEAN_MOTION_DOT":0.00304231,"MEAN_MOTION_DDOT":0},{"OBJECT_NAME":"SILVERSAT","OBJECT_ID":"1998-067XV","EPOCH":"2026-04-09T21:00:23.302944","MEAN_MOTION":15.93591833,"ECCENTRICITY":0.00111585,"INCLINATION":51.6162,"RA_OF_ASC_NODE":263.0552,"ARG_OF_PERICENTER":291.0799,"MEAN_ANOMALY":68.9015,"EPHEMERIS_TYPE":0,"CLASSIFICATION_TYPE":"U","NORAD_CAT_ID":66909,"ELEMENT_SET_NO":999,"REV_AT_EPOCH":2012,"BSTAR":0.0015127234,"MEAN_MOTION_DOT":0.00559522,"MEAN_MOTION_DDOT":0.00013678915},{"OBJECT_NAME":"ISS OBJECT XW","OBJECT_ID":"1998-067XW","EPOCH":"2026-04-09T21:04:49.048608","MEAN_MOTION":15.80810972,"ECCENTRICITY":0.000851,"INCLINATION":51.6196,"RA_OF_ASC_NODE":265.3554,"ARG_OF_PERICENTER":278.2943,"MEAN_ANOMALY":81.7093,"EPHEMERIS_TYPE":0,"CLASSIFICATION_TYPE":"U","NORAD_CAT_ID":66910,"ELEMENT_SET_NO":999,"REV_AT_EPOCH":2009,"BSTAR":0.0011519,"MEAN_MOTION_DOT":0.00233104,"MEAN_MOTION_DDOT":0},{"OBJECT_NAME":"ISS OBJECT XX","OBJECT_ID":"1998-067XX","EPOCH":"2026-04-09T20:33:01.756512","MEAN_MOTION":16.15715135,"ECCENTRICITY":0.00136776,"INCLINATION":51.6079,"RA_OF_ASC_NODE":260.6037,"ARG_OF_PERICENTER":296.9856,"MEAN_ANOMALY":62.9763,"EPHEMERIS_TYPE":0,"CLASSIFICATION_TYPE":"U","NORAD_CAT_ID":66911,"ELEMENT_SET_NO":999,"REV_AT_EPOCH":2014,"BSTAR":0.0019662044,"MEAN_MOTION_DOT":0.0245473,"MEAN_MOTION_DDOT":0.0091410952},{"OBJECT_NAME":"ISS OBJECT XY","OBJECT_ID":"1998-067XY","EPOCH":"2026-04-08T21:02:13.072416","MEAN_MOTION":15.70570969,"ECCENTRICITY":0.0005572,"INCLINATION":51.6252,"RA_OF_ASC_NODE":273.7143,"ARG_OF_PERICENTER":269.5451,"MEAN_ANOMALY":90.4908,"EPHEMERIS_TYPE":0,"CLASSIFICATION_TYPE":"U","NORAD_CAT_ID":66912,"ELEMENT_SET_NO":999,"REV_AT_EPOCH":1988,"BSTAR":0.00084837,"MEAN_MOTION_DOT":0.00107568,"MEAN_MOTION_DDOT":0},{"OBJECT_NAME":"KNACKSAT-2","OBJECT_ID":"1998-067XZ","EPOCH":"2026-04-09T20:51:40.659840","MEAN_MOTION":15.5457108,"ECCENTRICITY":0.00110118,"INCLINATION":51.6307,"RA_OF_ASC_NODE":276.616,"ARG_OF_PERICENTER":302.4945,"MEAN_ANOMALY":57.4981,"EPHEMERIS_TYPE":0,"CLASSIFICATION_TYPE":"U","NORAD_CAT_ID":67683,"ELEMENT_SET_NO":999,"REV_AT_EPOCH":963,"BSTAR":0.00053953319,"MEAN_MOTION_DOT":0.00036065,"MEAN_MOTION_DDOT":0},{"OBJECT_NAME":"CORAL","OBJECT_ID":"1998-067YA","EPOCH":"2026-04-09T21:24:26.262432","MEAN_MOTION":15.60135098,"ECCENTRICITY":0.0014359,"INCLINATION":51.6285,"RA_OF_ASC_NODE":275.2663,"ARG_OF_PERICENTER":293.5259,"MEAN_ANOMALY":66.4225,"EPHEMERIS_TYPE":0,"CLASSIFICATION_TYPE":"U","NORAD_CAT_ID":67684,"ELEMENT_SET_NO":999,"REV_AT_EPOCH":965,"BSTAR":0.0010402,"MEAN_MOTION_DOT":0.00086998,"MEAN_MOTION_DDOT":0},{"OBJECT_NAME":"GXIBA-1","OBJECT_ID":"1998-067YB","EPOCH":"2026-04-09T20:30:23.582304","MEAN_MOTION":15.5525874,"ECCENTRICITY":0.001291,"INCLINATION":51.63,"RA_OF_ASC_NODE":276.5168,"ARG_OF_PERICENTER":299.2817,"MEAN_ANOMALY":60.6883,"EPHEMERIS_TYPE":0,"CLASSIFICATION_TYPE":"U","NORAD_CAT_ID":67685,"ELEMENT_SET_NO":999,"REV_AT_EPOCH":963,"BSTAR":0.00059440611,"MEAN_MOTION_DOT":0.00040873,"MEAN_MOTION_DDOT":0},{"OBJECT_NAME":"UITMSAT-2","OBJECT_ID":"1998-067YC","EPOCH":"2026-04-09T21:29:23.277120","MEAN_MOTION":15.56542736,"ECCENTRICITY":0.000996,"INCLINATION":51.6303,"RA_OF_ASC_NODE":276.0435,"ARG_OF_PERICENTER":275.751,"MEAN_ANOMALY":84.2345,"EPHEMERIS_TYPE":0,"CLASSIFICATION_TYPE":"U","NORAD_CAT_ID":67686,"ELEMENT_SET_NO":999,"REV_AT_EPOCH":964,"BSTAR":0.00075351,"MEAN_MOTION_DOT":0.00054506,"MEAN_MOTION_DDOT":0},{"OBJECT_NAME":"HMU-SAT2","OBJECT_ID":"1998-067YD","EPOCH":"2026-04-09T20:40:31.609344","MEAN_MOTION":15.54960934,"ECCENTRICITY":0.00093862,"INCLINATION":51.632,"RA_OF_ASC_NODE":276.5683,"ARG_OF_PERICENTER":277.6177,"MEAN_ANOMALY":82.3748,"EPHEMERIS_TYPE":0,"CLASSIFICATION_TYPE":"U","NORAD_CAT_ID":67687,"ELEMENT_SET_NO":999,"REV_AT_EPOCH":955,"BSTAR":0.00054986527,"MEAN_MOTION_DOT":0.00037279,"MEAN_MOTION_DDOT":0},{"OBJECT_NAME":"LEOPARD","OBJECT_ID":"1998-067YE","EPOCH":"2026-04-08T21:04:51.493728","MEAN_MOTION":15.55857474,"ECCENTRICITY":0.0009494,"INCLINATION":51.6302,"RA_OF_ASC_NODE":281.2523,"ARG_OF_PERICENTER":271.8691,"MEAN_ANOMALY":88.1213,"EPHEMERIS_TYPE":0,"CLASSIFICATION_TYPE":"U","NORAD_CAT_ID":67688,"ELEMENT_SET_NO":999,"REV_AT_EPOCH":940,"BSTAR":0.00060389,"MEAN_MOTION_DOT":0.00042408,"MEAN_MOTION_DDOT":0},{"OBJECT_NAME":"CREW DRAGON 12","OBJECT_ID":"2026-031A","EPOCH":"2026-04-10T04:46:28.718400","MEAN_MOTION":15.48858067,"ECCENTRICITY":0.0006432,"INCLINATION":51.6328,"RA_OF_ASC_NODE":276.5654,"ARG_OF_PERICENTER":294.6645,"MEAN_ANOMALY":65.3674,"EPHEMERIS_TYPE":0,"CLASSIFICATION_TYPE":"U","NORAD_CAT_ID":67796,"ELEMENT_SET_NO":999,"REV_AT_EPOCH":56123,"BSTAR":0.00013529077,"MEAN_MOTION_DOT":6.976e-5,"MEAN_MOTION_DDOT":0},{"OBJECT_NAME":"PROGRESS-MS 33","OBJECT_ID":"2026-058A","EPOCH":"2026-04-10T04:46:28.718400","MEAN_MOTION":15.48858067,"ECCENTRICITY":0.0006432,"INCLINATION":51.6328,"RA_OF_ASC_NODE":276.5654,"ARG_OF_PERICENTER":294.6645,"MEAN_ANOMALY":65.3674,"EPHEMERIS_TYPE":0,"CLASSIFICATION_TYPE":"U","NORAD_CAT_ID":68319,"ELEMENT_SET_NO":999,"REV_AT_EPOCH":224,"BSTAR":0.00013529077,"MEAN_MOTION_DOT":6.976e-5,"MEAN_MOTION_DDOT":0}]
